{"type": "FeatureCollection", "features": [ {"type": "Feature", "properties": {"norad_id": 65077, "name": "CREW DRAGON 11", "group": "stations", "lat": -51.04319871914884, "lon": 74.62163664846736, "alt_km": 421.7953854821699, "timestamp": "2025-12-05T22:40:47.363028+00:00", "meta": {"OBJECT_NAME": "CREW DRAGON 11", "OBJECT_ID": "2025-166A", "EPOCH": "2025-12-05T06:04:12.236160", "MEAN_MOTION": 15.49328184, "ECCENTRICITY": 0.00035858, "INCLINATION": 51.6297, "RA_OF_ASC_NODE": 179.5463, "ARG_OF_PERICENTER": 206.2517, "MEAN_ANOMALY": 153.8291, "EPHEMERIS_TYPE": 0, "CLASSIFICATION_TYPE": "U", "NORAD_CAT_ID": 65077, "ELEMENT_SET_NO": 999, "REV_AT_EPOCH": 214, "BSTAR": 0.0002719745, "MEAN_MOTION_DOT": 0.00014736, "MEAN_MOTION_DDOT": 0}, "tle": {"line1": "1 65077U 25166A   25339.25291940  .00014736  00000+0  27197-3 0  9998", "line2": "2 65077  51.6297 179.5463 0003585 206.2517 153.8291 15.49328184  2147"}}, "geometry": {"type": "Point", "coordinates": [74.62163664846736, -51.04319871914884]}}, {"type": "Feature", "properties": {"norad_id": 65304, "name": "DRAGON CRS-33", "group": "stations", "lat": -51.0431988199251, "lon": 74.62163766127028, "alt_km": 421.7953855070509, "timestamp": "2025-12-05T22:40:47.363038+00:00", "meta": {"OBJECT_NAME": "DRAGON CRS-33", "OBJECT_ID": "2025-186A", "EPOCH": "2025-12-05T06:04:12.236160", "MEAN_MOTION": 15.49328184, "ECCENTRICITY": 0.00035858, "INCLINATION": 51.6297, "RA_OF_ASC_NODE": 179.5463, "ARG_OF_PERICENTER": 206.2517, "MEAN_ANOMALY": 153.8291, "EPHEMERIS_TYPE": 0, "CLASSIFICATION_TYPE": "U", "NORAD_CAT_ID": 65304, "ELEMENT_SET_NO": 999, "REV_AT_EPOCH": 11, "BSTAR": 0.0002719745, "MEAN_MOTION_DOT": 0.00014736, "MEAN_MOTION_DDOT": 0}, "tle": {"line1": "1 65304U 25186A   25339.25291940  .00014736  00000+0  27197-3 0  9993", "line2": "2 65304  51.6297 179.5463 0003585 206.2517 153.8291 15.49328184   115"}}, "geometry": {"type": "Point", "coordinates": [74.62163766127028, -51.0431988199251]}}, {"type": "Feature", "properties": {"norad_id": 65586, "name": "PROGRESS-MS 32", "group": "stations", "lat": -51.043198910623964, "lon": 74.62163857279523, "alt_km": 421.7953855294454, "timestamp": "2025-12-05T22:40:47.363047+00:00", "meta": {"OBJECT_NAME": "PROGRESS-MS 32", "OBJECT_ID": "2025-204A", "EPOCH": "2025-12-05T06:04:12.236160", "MEAN_MOTION": 15.49328184, "ECCENTRICITY": 0.00035858, "INCLINATION": 51.6297, "RA_OF_ASC_NODE": 179.5463, "ARG_OF_PERICENTER": 206.2517, "MEAN_ANOMALY": 153.8291, "EPHEMERIS_TYPE": 0, "CLASSIFICATION_TYPE": "U", "NORAD_CAT_ID": 65586, "ELEMENT_SET_NO": 999, "REV_AT_EPOCH": 27, "BSTAR": 0.0002719745, "MEAN_MOTION_DOT": 0.00014736, "MEAN_MOTION_DDOT": 0}, "tle": {"line1": "1 65586U 25204A   25339.25291940  .00014736  00000+0  27197-3 0  9996", "line2": "2 65586  51.6297 179.5463 0003585 206.2517 153.8291 15.49328184   274"}}, "geometry": {"type": "Point", "coordinates": [74.62163857279523, -51.043198910623964]}}, {"type": "Feature", "properties": {"norad_id": 65616, "name": "CYGNUS NG-23", "group": "stations", "lat": -51.04319901139995, "lon": 74.62163958559557, "alt_km": 421.7953855543228, "timestamp": "2025-12-05T22:40:47.363057+00:00", "meta": {"OBJECT_NAME": "CYGNUS NG-23", "OBJECT_ID": "2025-208A", "EPOCH": "2025-12-05T06:04:12.236160", "MEAN_MOTION": 15.49328184, "ECCENTRICITY": 0.00035858, "INCLINATION": 51.6297, "RA_OF_ASC_NODE": 179.5463, "ARG_OF_PERICENTER": 206.2517, "MEAN_ANOMALY": 153.8291, "EPHEMERIS_TYPE": 0, "CLASSIFICATION_TYPE": "U", "NORAD_CAT_ID": 65616, "ELEMENT_SET_NO": 999, "REV_AT_EPOCH": 22, "BSTAR": 0.0002719745, "MEAN_MOTION_DOT": 0.00014736, "MEAN_MOTION_DDOT": 0}, "tle": {"line1": "1 65616U 25208A   25339.25291940  .00014736  00000+0  27197-3 0  9994", "line2": "2 65616  51.6297 179.5463 0003585 206.2517 153.8291 15.49328184   223"}}, "geometry": {"type": "Point", "coordinates": [74.62163958559557, -51.04319901139995]}}, {"type": "Feature", "properties": {"norad_id": 65729, "name": "DRAGONFLY", "group": "stations", "lat": 51.32708925613279, "lon": -107.56955106086612, "alt_km": 357.3991056430232, "timestamp": "2025-12-05T22:40:47.363067+00:00", "meta": {"OBJECT_NAME": "DRAGONFLY", "OBJECT_ID": "1998-067XH", "EPOCH": "2025-12-04T18:48:18.796032", "MEAN_MOTION": 15.68817694, "ECCENTRICITY": 0.00065682, "INCLINATION": 51.624, "RA_OF_ASC_NODE": 176.4076, "ARG_OF_PERICENTER": 226.1978, "MEAN_ANOMALY": 133.8476, "EPHEMERIS_TYPE": 0, "CLASSIFICATION_TYPE": "U", "NORAD_CAT_ID": 65729, "ELEMENT_SET_NO": 999, "REV_AT_EPOCH": 1191, "BSTAR": 0.0018217218, "MEAN_MOTION_DOT": 0.00218353, "MEAN_MOTION_DDOT": 0}, "tle": {"line1": "1 65729U 98067XH  25338.78355088  .00218353  00000+0  18217-2 0  9996", "line2": "2 65729  51.6240 176.4076 0006568 226.1978 133.8476 15.68817694 11919"}}, "geometry": {"type": "Point", "coordinates": [-107.56955106086612, 51.32708925613279]}}, {"type": "Feature", "properties": {"norad_id": 65731, "name": "1998-067XK", "group": "stations", "lat": -45.9887510822085, "lon": 46.766926808845575, "alt_km": 377.3560531668336, "timestamp": "2025-12-05T22:40:47.363080+00:00", "meta": {"OBJECT_NAME": "1998-067XK", "OBJECT_ID": "1998-067XK", "EPOCH": "2025-12-05T06:17:44.288160", "MEAN_MOTION": 15.63965392, "ECCENTRICITY": 0.00057136, "INCLINATION": 51.6276, "RA_OF_ASC_NODE": 175.1175, "ARG_OF_PERICENTER": 201.161, "MEAN_ANOMALY": 158.9149, "EPHEMERIS_TYPE": 0, "CLASSIFICATION_TYPE": "U", "NORAD_CAT_ID": 65731, "ELEMENT_SET_NO": 999, "REV_AT_EPOCH": 1197, "BSTAR": 0.0012222442, "MEAN_MOTION_DOT": 0.00118787, "MEAN_MOTION_DDOT": 0}, "tle": {"line1": "1 65731U 98067XK  25339.26231815  .00118787  00000+0  12222-2 0  9994", "line2": "2 65731  51.6276 175.1175 0005713 201.1610 158.9149 15.63965392 11979"}}, "geometry": {"type": "Point", "coordinates": [46.766926808845575, -45.9887510822085]}}, {"type": "Feature", "properties": {"norad_id": 65732, "name": "RSP-03", "group": "stations", "lat": 19.707034872557657, "lon": -25.39367502884737, "alt_km": 364.0973231775979, "timestamp": "2025-12-05T22:40:47.363093+00:00", "meta": {"OBJECT_NAME": "RSP-03", "OBJECT_ID": "1998-067XL", "EPOCH": "2025-12-05T06:42:43.045632", "MEAN_MOTION": 15.66336847, "ECCENTRICITY": 0.0006353, "INCLINATION": 51.625, "RA_OF_ASC_NODE": 174.4773, "ARG_OF_PERICENTER": 204.5134, "MEAN_ANOMALY": 155.556, "EPHEMERIS_TYPE": 0, "CLASSIFICATION_TYPE": "U", "NORAD_CAT_ID": 65732, "ELEMENT_SET_NO": 999, "REV_AT_EPOCH": 1199, "BSTAR": 0.0014259537, "MEAN_MOTION_DOT": 0.0015313, "MEAN_MOTION_DDOT": 0}, "tle": {"line1": "1 65732U 98067XL  25339.27966488  .00153130  00000+0  14260-2 0  9992", "line2": "2 65732  51.6250 174.4773 0006353 204.5134 155.5560 15.66336847 11999"}}, "geometry": {"type": "Point", "coordinates": [-25.39367502884737, 19.707034872557657]}}, {"type": "Feature", "properties": {"norad_id": 65733, "name": "GHS-01", "group": "stations", "lat": -44.65657553881478, "lon": 118.51720046348578, "alt_km": 356.83176374294, "timestamp": "2025-12-05T22:40:47.363103+00:00", "meta": {"OBJECT_NAME": "GHS-01", "OBJECT_ID": "1998-067XM", "EPOCH": "2025-12-04T19:28:30.588096", "MEAN_MOTION": 15.70973864, "ECCENTRICITY": 0.00069075, "INCLINATION": 51.627, "RA_OF_ASC_NODE": 175.8507, "ARG_OF_PERICENTER": 226.7602, "MEAN_ANOMALY": 133.282, "EPHEMERIS_TYPE": 0, "CLASSIFICATION_TYPE": "U", "NORAD_CAT_ID": 65733, "ELEMENT_SET_NO": 999, "REV_AT_EPOCH": 1193, "BSTAR": 0.0020184818, "MEAN_MOTION_DOT": 0.00266248, "MEAN_MOTION_DDOT": 0}, "tle": {"line1": "1 65733U 98067XM  25338.81146514  .00266248  00000+0  20185-2 0  9990", "line2": "2 65733  51.6270 175.8507 0006907 226.7602 133.2820 15.70973864 11930"}}, "geometry": {"type": "Point", "coordinates": [118.51720046348578, -44.65657553881478]}}, {"type": "Feature", "properties": {"norad_id": 65941, "name": "YOTSUBA-KULOVER", "group": "stations", "lat": 18.784878651029274, "lon": -21.53986703607446, "alt_km": 389.2527736345028, "timestamp": "2025-12-05T22:40:47.363116+00:00", "meta": {"OBJECT_NAME": "YOTSUBA-KULOVER", "OBJECT_ID": "1998-067XN", "EPOCH": "2025-12-04T13:41:28.106016", "MEAN_MOTION": 15.58052031, "ECCENTRICITY": 0.00020554, "INCLINATION": 51.6276, "RA_OF_ASC_NODE": 180.9943, "ARG_OF_PERICENTER": 178.3938, "MEAN_ANOMALY": 181.7061, "EPHEMERIS_TYPE": 0, "CLASSIFICATION_TYPE": "U", "NORAD_CAT_ID": 65941, "ELEMENT_SET_NO": 999, "REV_AT_EPOCH": 858, "BSTAR": 0.0013676634, "MEAN_MOTION_DOT": 0.00105594, "MEAN_MOTION_DDOT": 0}, "tle": {"line1": "1 65941U 98067XN  25338.57046419  .00105594  00000+0  13677-2 0  9991", "line2": "2 65941  51.6276 180.9943 0002055 178.3938 181.7061 15.58052031  8584"}}, "geometry": {"type": "Point", "coordinates": [-21.53986703607446, 18.784878651029274]}}, {"type": "Feature", "properties": {"norad_id": 65942, "name": "BOTAN", "group": "stations", "lat": 35.686487779463924, "lon": -151.7414639778655, "alt_km": 381.6748064978283, "timestamp": "2025-12-05T22:40:47.363126+00:00", "meta": {"OBJECT_NAME": "BOTAN", "OBJECT_ID": "1998-067XP", "EPOCH": "2025-12-04T15:44:42.289728", "MEAN_MOTION": 15.60784931, "ECCENTRICITY": 0.00042645, "INCLINATION": 51.6268, "RA_OF_ASC_NODE": 180.0664, "ARG_OF_PERICENTER": 180.2775, "MEAN_ANOMALY": 179.8217, "EPHEMERIS_TYPE": 0, "CLASSIFICATION_TYPE": "U", "NORAD_CAT_ID": 65942, "ELEMENT_SET_NO": 999, "REV_AT_EPOCH": 860, "BSTAR": 0.0017279415, "MEAN_MOTION_DOT": 0.00149041, "MEAN_MOTION_DDOT": 0}, "tle": {"line1": "1 65942U 98067XP  25338.65604502  .00149041  00000+0  17279-2 0  9991", "line2": "2 65942  51.6268 180.0664 0004264 180.2775 179.8217 15.60784931  8600"}}, "geometry": {"type": "Point", "coordinates": [-151.7414639778655, 35.686487779463924]}}]}